15P/Finlay,e,6.7973,13.7208,347.8445,3.503513,0.1502964,0.71686211,273.1792,12/14.0/2019,2000,g 12.0,4.0
# From MPC 92276
16P/Brooks,e,3.0049,138.9976,245.1422,3.659374,0.1407972,0.48819422,290.9124,12/14.0/2019,2000,g  7.5,10.0
# From MPC114607
17P/Holmes,e,19.0226,326.6627,24.5780,3.635133,0.1422078,0.42825151,298.2679,12/14.0/2019,2000,g 10.0,6.0
# From MPC 92984
19P/Borrelly,e,29.7567,74.6455,351.8109,3.597903,0.1444208,0.64044526,247.4037,12/14.0/2019,2000,g  4.5,10.0
# From MPC111773
21P/Giacobini-Zinner,e,32.0030,195.3771,172.8489,3.496503,0.1507486,0.71049832,69.2991,12/14.0/2019,2000,g  9.0,6.0
# From MPC 94283
22P/Kopff,e,4.7414,120.8359,162.9381,3.443668,0.1542312,0.54881707,232.7696,12/14.0/2019,2000,g  3.0,10.4
# From MPC 14747
23P/Brorsen-Metcalf,e,19.1632,312.3001,128.9435,16.95778,0.0141140,0.97089961,0.0000,08/18.2102/1989,2000,g 10.0,6.0
# From MPC110085
24P/Schaumasse,e,11.7318,79.5902,57.7508,4.070764,0.1200025,0.70690134,90.7624,12/14.0/2019,2000,g  6.5,14.0
# From MPC 94674
26P/Grigg-Skjellerup,e,22.4480,211.5344,2.1945,3.013777,0.1883811,0.64080330,82.5556,12/14.0/2019,2000,g 12.0,16.0
# From MPC 78188
27P/Crommelin,e,29.1092,250.5730,196.0181,9.193491,0.0353576,0.91790534,108.3139,12/14.0/2019,2000,g 12.0,8.0
# From MPC114607
28P/Neujmin,e,14.3116,346.3469,347.4396,6.967542,0.0535901,0.77353917,335.6705,12/14.0/2019,2000,g  8.5,6.0
# From MPEC 2019-VB6
29P/Schwassmann-Wachmann,e,9.3671,312.3829,47.9661,6.030140,0.0665599,0.04364968,18.5518,12/14.0/2019,2000,g  4.0,4.0
# From MPC110085
30P/Reinmuth,e,8.2848,119.0836,13.2010,3.752034,0.1356138,0.51047004,114.2694,12/14.0/2019,2000,g  9.5,6.0
# From MPC108597
31P/Schwassmann-Wachmann,e,4.5472,114.1126,18.3290,4.242930,0.1127730,0.19269611,18.1578,12/14.0/2019,2000,g  5.0,8.0
# From MPC 92276
32P/Comas Sola,e,9.9442,57.6643,53.3035,4.498919,0.1032861,0.55667380,194.6810,12/14.0/2019,2000,g  6.5,8.0
# From MPEC 2013-O31
33P/Daniel,e,22.3668,66.3737,20.6445,4.079203,0.1196303,0.45390856,145.2371,12/14.0/2019,2000,g 10.0,12.0
# From  15, 452
35P/Herschel-Rigollet,e,64.471,356.226,29.140,28.5703,0.006454,0.9733178,0.000,12/25.7920/2091,2000,g  9.0,4.0
# From MPC105240
36P/Whipple,e,9.9529,181.8638,200.7541,4.129818,0.1174378,0.26832197,340.0871,12/14.0/2019,2000,g  8.5,6.0
# From MPEC 2018-HA5
37P/Forbes,e,8.9564,314.5706,330.0508,3.458488,0.1532409,0.53418537,90.2251,12/14.0/2019,2000,g 10.5,4.8
# From MPEC 2018-S50
38P/Stephan-Oterma,e,18.3533,77.9981,359.5629,11.26897,0.0260542,0.85905605,10.3713,12/14.0/2019,2000,g  3.5,12.0
# From MPC115887
39P/Oterma,e,1.5610,299.2543,94.7671,7.412251,0.0488404,0.22351032,299.2569,12/14.0/2019,2000,g  7.0,6.0
# From MPC100283
40P/Vaisala,e,11.4720,133.7933,47.4634,4.949665,0.0895036,0.63031468,166.0994,12/14.0/2019,2000,g  5.5,12.0
# From MPC105240
41P/Tuttle-Giacobini-Kresak,e,9.2220,141.0096,62.2559,3.085590,0.1818431,0.66053335,177.3988,12/14.0/2019,2000,g 10.0,16.0
# From MPC 94283
42P/Neujmin,e,3.9879,150.2062,147.1377,4.873056,0.0916225,0.58536197,156.5716,12/14.0/2019,2000,g 13.0,6.0
# From MPC102956
43P/Wolf-Harrington,e,9.5143,244.8137,223.7564,4.295787,0.1106980,0.44389285,132.0081,12/14.0/2019,2000,g  8.0,6.0
# From MPC 89313
44P/Reinmuth,e,5.8982,286.4824,58.1220,3.689075,0.1391002,0.42688758,240.1232,12/14.0/2019,2000,g  8.3,6.0
# From MPC103849
45P/Honda-Mrkos-Pajdusakova,e,4.3265,87.6924,327.9909,3.049043,0.1851223,0.81795357,200.1031,12/14.0/2019,2000,g 13.5,8.0
# From MPC114607
46P/Wirtanen,e,11.7449,82.1530,356.3657,3.091891,0.1812875,0.65855795,66.3690,12/14.0/2019,2000,g 14.0,6.0
# From NK 2718
47P/Ashbrook-Jackson,e,13.0314,356.9372,357.6056,4.125828,0.1176082,0.31763852,107.8275,12/14.0/2019,2000,g  9.0,4.0
# From MPEC 2015-M77
48P/Johnson,e,12.2077,110.1272,216.6005,3.499947,0.1505261,0.42724289,73.5579,12/14.0/2019,2000,g  9.0,4.0
# From MPEC 2015-M77
49P/Arend-Rigaux,e,19.0443,118.8060,332.9476,3.569458,0.1461506,0.59905704,75.5039,12/14.0/2019,2000,g  9.0,4.0
# From MPEC 2015-S97
50P/Arend,e,19.0961,355.1534,49.3723,4.089744,0.1191681,0.52846083,167.6580,12/14.0/2019,2000,g  9.5,6.0
# From NK 3013
51P-A/Harrington,e,5.4254,83.6778,269.2306,3.708859,0.1379887,0.54272088,218.7973,12/14.0/2019,2000,g 16.0,8.0
# From NK 3014
51P-A/Harrington,e,5.4247,83.6934,269.1912,3.709884,0.1379316,0.54279252,218.5548,12/14.0/2019,2000,g 10.0,8.0
# From NK 3014
51P-A/Harrington,e,5.4247,83.6934,269.1913,3.709866,0.1379326,0.54278944,218.5578,12/14.0/2019,2000,g 10.0,8.0
# From MPEC 2015-L08
51P-D/Harrington,e,5.4261,83.6833,269.1807,3.708949,0.1379837,0.54273498,218.7937,12/14.0/2019,2000,g 16.0,8.0
# From MPEC 2015-L08
51P-D/Harrington,e,5.4261,83.6823,269.1815,3.708937,0.1379844,0.54273556,218.7986,12/14.0/2019,2000,g 16.0,8.0
# From NK 3013
51P-D/Harrington,e,5.4254,83.6781,269.2303,3.708858,0.1379888,0.54272106,218.7975,12/14.0/2019,2000,g 16.0,8.0
# From NK 3013
51P-D/Harrington,e,5.4254,83.6781,269.2303,3.708858,0.1379888,0.54272120,218.7975,12/14.0/2019,2000,g 16.0,8.0
# From MPC 88330
52P/Harrington-Abell,e,10.2307,336.8378,139.6031,3.861849,0.1298707,0.53958443,274.1020,12/14.0/2019,2000,g 13.5,6.0
# From MPC100283
53P/Van Biesbroeck,e,6.6074,148.8532,134.3544,5.423165,0.0780414,0.55235054,103.1897,12/14.0/2019,2000,g  7.7,4.8
# From MPC 89011
54P/de Vico-Swift-NEAT,e,6.0598,358.8190,1.7705,3.793964,0.1333719,0.42512428,129.6972,12/14.0/2019,2000,g  9.0,4.0
# From MPC 31070
55P/Tempel-Tuttle,e,162.3598,235.4044,172.5585,10.34548,0.0296195,0.90686536,236.3833,12/14.0/2019,2000,g  9.0,4.0
# From MPC101100
56P/Slaughter-Burnham,e,8.1551,345.9760,44.0562,5.073576,0.0862448,0.50650258,107.2802,12/14.0/2019,2000,g  8.5,6.0
# From MPC 98565
57P/du Toit-Neujmin-Delporte,e,2.8497,188.7838,115.1906,3.447785,0.1539550,0.50062266,256.3193,12/14.0/2019,2000,g 12.5,6.0
# From NK 778
58P/Jackson-Neujmin,e,13.1001,159.0724,200.4539,4.083889,0.1194244,0.66270100,340.5291,12/14.0/2019,2000,g  9.0,4.0
# From MPC111774
59P/Kearns-Kwee,e,9.3411,312.8292,127.6549,4.491108,0.1035556,0.47490783,46.9499,12/14.0/2019,2000,g  7.0,6.0
# From MPEC 2015-M77
60P/Tsuchinshan,e,3.6066,267.5819,216.6207,3.512142,0.1497428,0.53767476,55.0609,12/14.0/2019,2000,g  9.0,4.0
# From MPEC 2015-Q71
61P/Shajn-Schaldach,e,5.9991,162.9927,221.9276,3.684142,0.1393797,0.42383071,214.2192,12/14.0/2019,2000,g  6.0,10.0
# From MPC109147
62P/Tsuchinshan,e,9.7324,90.1359,29.9488,3.423401,0.1556028,0.61266405,116.2573,12/14.0/2019,2000,g  8.0,10.0
# From MPC 84320
63P/Wild,e,19.7458,358.0134,169.1690,5.603664,0.0743012,0.64932556,181.3635,12/14.0/2019,2000,g 10.5,6.0
# From MPC111774
64P/Swift-Gehrels,e,8.9500,299.9987,97.1224,4.456212,0.1047744,0.68748590,42.4455,12/14.0/2019,2000,g  9.5,12.0
# From MPC104795
65P/Gunn,e,9.1842,62.0227,213.7315,3.883057,0.1288082,0.25000438,101.4237,12/14.0/2019,2000,g  5.0,6.0
# From MPC109147
66P/du Toit,e,18.6669,21.8858,257.2628,6.060050,0.0660678,0.78698607,37.9093,12/14.0/2019,2000,g  9.0,4.0
# From MPC 89011
67P/Churyumov-Gerasimenko,e,3.9249,37.4484,21.4084,3.447461,0.1539767,0.65470461,254.2471,12/14.0/2019,2000,g 11.0,4.0
# From MPC 75716
68P/Klemola,e,11.1109,175.0822,153.0594,4.948556,0.0895337,0.63749974,3.1301,12/14.0/2019,2000,g 10.0,4.0
# From MPC114607
69P/Taylor,e,22.0330,104.8306,343.5431,3.890658,0.1284309,0.41313659,34.7565,12/14.0/2019,2000,g  9.5,12.0
# From MPC 92276
70P/Kojima,e,6.5982,119.2678,1.8712,3.674922,0.1399046,0.45325233,263.4118,12/14.0/2019,2000,g 11.0,6.0
# From MPC107051
71P/Clark,e,9.4428,59.4425,208.9950,3.138004,0.1773062,0.49427190,158.9600,12/14.0/2019,2000,g  9.8,6.0
# From MPC 89011
72P/Denning-Fujikawa,e,10.9250,26.6920,346.6662,4.311988,0.1100748,0.81783229,219.0318,12/14.0/2019,2000,g 17.5,10.0
# From MPC106348
73P/Schwassmann-Wachmann,e,11.2362,69.6549,199.4268,3.093113,0.1811800,0.68575008,181.4976,12/14.0/2019,2000,g 11.5,6.0
# From MPC106348
73P-T/Schwassmann-Wachmann,e,11.2383,69.6575,199.4083,3.094673,0.1810431,0.68595336,181.3614,12/14.0/2019,2000,g 11.5,6.0
# From MPC102956
74P/Smirnova-Chernykh,e,6.6457,77.0525,88.9756,4.183835,0.1151707,0.15247125,77.6488,12/14.0/2019,2000,g  5.0,6.0
# From MPC118097
76P/West-Kohoutek-Ikemura,e,30.4569,84.1250,0.0213,3.475135,0.1521411,0.53820606,7.4331,12/14.0/2019,2000,g  8.0,12.0
# From MPC100283
77P/Longmore,e,24.3304,14.8053,196.8675,3.619734,0.1431163,0.35269378,187.4277,12/14.0/2019,2000,g  7.0,8.0
# From MPEC 2016-U66
78P/Gehrels,e,6.2484,210.5426,192.6720,3.740563,0.1362381,0.46167492,34.7862,12/14.0/2019,2000,g  9.0,4.0
# From MPC 94675
79P/du Toit-Hartley,e,3.1480,280.5251,281.8279,2.942842,0.1952332,0.61911735,89.1675,12/14.0/2019,2000,g 16.0,4.0
# From MPEC 2014-P41
80P/Peters-Hartley,e,29.9477,259.8219,339.2474,4.024281,0.1220876,0.59925263,226.8931,12/14.0/2019,2000,g  9.0,4.0
# From MPC105241
81P/Wild,e,3.2372,136.1101,41.7248,3.449817,0.1538190,0.53737473,191.1372,12/14.0/2019,2000,g  7.0,6.0
# From MPC 75717
82P/Gehrels,e,1.1283,239.3156,226.9878,4.138113,0.1170848,0.12189626,62.6186,12/14.0/2019,2000,g  5.0,8.0
# From MPC105241
84P/Giclas,e,7.5522,108.1746,281.5469,3.548078,0.1474736,0.51552243,334.5191,12/14.0/2019,2000,g  9.5,8.0
# From MPC109147
86P/Wild,e,15.4763,72.3785,179.2898,3.604557,0.1440211,0.37266636,246.7719,12/14.0/2019,2000,g 11.0,6.0
# From MPC105241
87P/Bus,e,2.6023,181.8623,24.9200,3.438085,0.1546070,0.38923304,337.2382,12/14.0/2019,2000,g  7.2,10.0
# From MPEC 2019-JE2
88P/Howell,e,4.3838,56.6863,235.9120,3.105352,0.1801100,0.56423354,308.1941,12/14.0/2019,2000,g 11.0,6.0
# From MPC100283
89P/Russell,e,12.0722,41.4264,250.2380,3.753875,0.1355141,0.40865856,148.1994,12/14.0/2019,2000,g 11.5,6.0
# From MPC107051
90P/Gehrels,e,9.6384,13.2213,29.1453,6.057357,0.0661119,0.50945620,60.0428,12/14.0/2019,2000,g  8.5,6.0
# From MPC105241
91P/Russell,e,14.0915,247.8298,354.7566,3.890913,0.1284183,0.33060986,317.4635,12/14.0/2019,2000,g  7.5,6.0
# From MPEC 2014-J58
92P/Sanguin,e,19.4694,181.4010,163.7030,5.346360,0.0797291,0.66018587,139.3583,12/14.0/2019,2000,g 12.0,6.0
# From NK 2707
